DONGPO 01               
1 53453U 22098K   26062.83739968  .00077330  00000+0  10425-2 0  9993
2 53453  97.5451 187.0969 0000925 228.5599 131.5576 15.57561888198289
STARLINK-4400           
1 53468U 22099D   26062.32558901  .00000206  00000+0  20612-4 0  9999
2 53468  97.6030 183.9842 0002393  78.7399 281.4094 15.01261420195025
STARLINK-4621           
1 53676U 22105AE  26062.66847889  .00000295  00000+0  27483-4 0  9992
2 53676  97.6008 304.3187 0003604  36.0899 324.0568 15.01262868192338
SHERPA-LTC2             
1 53754U 22107BG  26062.04829240  .00004725  00000+0  25029-3 0  9999
2 53754  53.2376 309.2259 0397741 289.6612  66.1858 14.68459635186940
CENTISPACE-1 S3         
1 53757U 22108A   26062.73078861  .00000838  00000+0  20734-3 0  9993
2 53757  53.5322 131.2896 0010749  68.4501 291.7619 14.61120275186115
CENTISPACE-1 S4         
1 53758U 22108B   26062.69476526  .00001099  00000+0  25634-3 0  9993
2 53758  53.5297 129.4457 0010036  57.5026 302.6918 14.61766942186132
BLUEWALKER-3            
1 53807U 22111AL  26062.68892706  .00009994  00000+0  28184-3 0  9998
2 53807  53.2302 168.7937 0005489 200.2230 159.8558 15.37048230193979
YUNHAI-1 03             
1 53877U 22115A   26062.86987758  .00000448  00000+0  18105-3 0  9998
2 53877  98.5533  62.3662 0004872  12.4889 347.6415 14.32640094180432
CENTISPACE-1 S5         
1 54020U 22126A   26062.72218569  .00001173  00000+0  26476-3 0  9999
2 54020  54.9982 274.9292 0012329 178.1435 181.9607 14.62788217181605
CENTISPACE-1 S6         
1 54021U 22126B   26062.73316760  .00000887  00000+0  21205-3 0  9999
2 54021  54.9986 276.2766 0014059 180.7142 179.3834 14.62117298181571
OTB-3-GAZELLE           
1 54023U 22127A   26062.49853442  .00000094  00000+0  41368-4 0  9991
2 54023  98.3901  55.8399 0013835 143.2080 217.0062 14.42632547179129
ASO-S                   
1 54029U 22129A   26062.89146234  .00000296  00000+0  84243-4 0  9990
2 54029  98.2776  69.4727 0015394  59.0324 301.2381 14.52008590180147
HJ-2E                   
1 54035U 22132A   26062.86368414  .00013115  00000+0  59575-3 0  9997
2 54035  97.3822  69.2487 0021699  23.4156 336.8063 15.20683748188408
COSMOS 2561             
1 54109U 22137A   26062.88939436  .00018295  00000+0  34029-3 0  9995
2 54109  96.9334 125.9440 0011236  60.4481 299.7889 15.48854996190030
GONETS-M 23             
1 54150U 22139A   26062.81180778  .00000014  00000+0  26341-4 0  9992
2 54150  82.5033  53.7704 0022672  91.0409 269.3269 12.42886278152559
GONETS-M 24             
1 54151U 22139B   26062.86544269  .00000025  00000+0  11127-3 0  9994
2 54151  82.4947  52.8687 0017840 100.5998 259.7092 12.42886733152567
GONETS-M 25             
1 54152U 22139C   26062.85177124  .00000043  00000+0  23689-3 0  9992
2 54152  82.5016  53.5070 0021768  99.3917 260.9625 12.42886156152565
