[{"OBJECT_NAME":"DONGPO 01","OBJECT_ID":"2022-098K","EPOCH":"2026-03-03T20:05:51.332352","MEAN_MOTION":15.57561888,"ECCENTRICITY":9.25e-5,"INCLINATION":97.5451,"RA_OF_ASC_NODE":187.0969,"ARG_OF_PERICENTER":228.5599,"MEAN_ANOMALY":131.5576,"EPHEMERIS_TYPE":0,"CLASSIFICATION_TYPE":"U","NORAD_CAT_ID":53453,"ELEMENT_SET_NO":999,"REV_AT_EPOCH":19828,"BSTAR":0.0010425,"MEAN_MOTION_DOT":0.0007733,"MEAN_MOTION_DDOT":0},{"OBJECT_NAME":"STARLINK-4400","OBJECT_ID":"2022-099D","EPOCH":"2026-03-03T07:48:50.890464","MEAN_MOTION":15.0126142,"ECCENTRICITY":0.00023931,"INCLINATION":97.603,"RA_OF_ASC_NODE":183.9842,"ARG_OF_PERICENTER":78.7399,"MEAN_ANOMALY":281.4094,"EPHEMERIS_TYPE":0,"CLASSIFICATION_TYPE":"U","NORAD_CAT_ID":53468,"ELEMENT_SET_NO":999,"REV_AT_EPOCH":19502,"BSTAR":2.0611614e-5,"MEAN_MOTION_DOT":2.06e-6,"MEAN_MOTION_DDOT":0},{"OBJECT_NAME":"STARLINK-4621","OBJECT_ID":"2022-105AE","EPOCH":"2026-03-03T16:02:36.576096","MEAN_MOTION":15.01262868,"ECCENTRICITY":0.0003604,"INCLINATION":97.6008,"RA_OF_ASC_NODE":304.3187,"ARG_OF_PERICENTER":36.0899,"MEAN_ANOMALY":324.0568,"EPHEMERIS_TYPE":0,"CLASSIFICATION_TYPE":"U","NORAD_CAT_ID":53676,"ELEMENT_SET_NO":999,"REV_AT_EPOCH":19233,"BSTAR":2.7483e-5,"MEAN_MOTION_DOT":2.95e-6,"MEAN_MOTION_DDOT":0},{"OBJECT_NAME":"SHERPA-LTC2","OBJECT_ID":"2022-107BG","EPOCH":"2026-03-03T01:09:32.463360","MEAN_MOTION":14.68459635,"ECCENTRICITY":0.03977412,"INCLINATION":53.2376,"RA_OF_ASC_NODE":309.2259,"ARG_OF_PERICENTER":289.6612,"MEAN_ANOMALY":66.1858,"EPHEMERIS_TYPE":0,"CLASSIFICATION_TYPE":"U","NORAD_CAT_ID":53754,"ELEMENT_SET_NO":999,"REV_AT_EPOCH":18694,"BSTAR":0.00025028574,"MEAN_MOTION_DOT":4.725e-5,"MEAN_MOTION_DDOT":0},{"OBJECT_NAME":"CENTISPACE-1 S3","OBJECT_ID":"2022-108A","EPOCH":"2026-03-03T17:32:20.135904","MEAN_MOTION":14.61120275,"ECCENTRICITY":0.0010749,"INCLINATION":53.5322,"RA_OF_ASC_NODE":131.2896,"ARG_OF_PERICENTER":68.4501,"MEAN_ANOMALY":291.7619,"EPHEMERIS_TYPE":0,"CLASSIFICATION_TYPE":"U","NORAD_CAT_ID":53757,"ELEMENT_SET_NO":999,"REV_AT_EPOCH":18611,"BSTAR":0.00020734,"MEAN_MOTION_DOT":8.38e-6,"MEAN_MOTION_DDOT":0},{"OBJECT_NAME":"CENTISPACE-1 S4","OBJECT_ID":"2022-108B","EPOCH":"2026-03-03T16:40:27.718464","MEAN_MOTION":14.61766942,"ECCENTRICITY":0.0010036,"INCLINATION":53.5297,"RA_OF_ASC_NODE":129.4457,"ARG_OF_PERICENTER":57.5026,"MEAN_ANOMALY":302.6918,"EPHEMERIS_TYPE":0,"CLASSIFICATION_TYPE":"U","NORAD_CAT_ID":53758,"ELEMENT_SET_NO":999,"REV_AT_EPOCH":18613,"BSTAR":0.00025634,"MEAN_MOTION_DOT":1.099e-5,"MEAN_MOTION_DDOT":0},{"OBJECT_NAME":"BLUEWALKER-3","OBJECT_ID":"2022-111AL","EPOCH":"2026-03-03T16:32:03.297984","MEAN_MOTION":15.3704823,"ECCENTRICITY":0.0005489,"INCLINATION":53.2302,"RA_OF_ASC_NODE":168.7937,"ARG_OF_PERICENTER":200.223,"MEAN_ANOMALY":159.8558,"EPHEMERIS_TYPE":0,"CLASSIFICATION_TYPE":"U","NORAD_CAT_ID":53807,"ELEMENT_SET_NO":999,"REV_AT_EPOCH":19397,"BSTAR":0.00028184,"MEAN_MOTION_DOT":9.994e-5,"MEAN_MOTION_DDOT":0},{"OBJECT_NAME":"YUNHAI-1 03","OBJECT_ID":"2022-115A","EPOCH":"2026-03-03T20:52:37.422912","MEAN_MOTION":14.32640094,"ECCENTRICITY":0.0004872,"INCLINATION":98.5533,"RA_OF_ASC_NODE":62.3662,"ARG_OF_PERICENTER":12.4889,"MEAN_ANOMALY":347.6415,"EPHEMERIS_TYPE":0,"CLASSIFICATION_TYPE":"U","NORAD_CAT_ID":53877,"ELEMENT_SET_NO":999,"REV_AT_EPOCH":18043,"BSTAR":0.00018105,"MEAN_MOTION_DOT":4.48e-6,"MEAN_MOTION_DDOT":0},{"OBJECT_NAME":"CENTISPACE-1 S5","OBJECT_ID":"2022-126A","EPOCH":"2026-03-03T17:19:56.843616","MEAN_MOTION":14.62788217,"ECCENTRICITY":0.0012329,"INCLINATION":54.9982,"RA_OF_ASC_NODE":274.9292,"ARG_OF_PERICENTER":178.1435,"MEAN_ANOMALY":181.9607,"EPHEMERIS_TYPE":0,"CLASSIFICATION_TYPE":"U","NORAD_CAT_ID":54020,"ELEMENT_SET_NO":999,"REV_AT_EPOCH":18160,"BSTAR":0.00026476,"MEAN_MOTION_DOT":1.173e-5,"MEAN_MOTION_DDOT":0},{"OBJECT_NAME":"CENTISPACE-1 S6","OBJECT_ID":"2022-126B","EPOCH":"2026-03-03T17:35:45.680640","MEAN_MOTION":14.62117298,"ECCENTRICITY":0.0014059,"INCLINATION":54.9986,"RA_OF_ASC_NODE":276.2766,"ARG_OF_PERICENTER":180.7142,"MEAN_ANOMALY":179.3834,"EPHEMERIS_TYPE":0,"CLASSIFICATION_TYPE":"U","NORAD_CAT_ID":54021,"ELEMENT_SET_NO":999,"REV_AT_EPOCH":18157,"BSTAR":0.00021205,"MEAN_MOTION_DOT":8.87e-6,"MEAN_MOTION_DDOT":0},{"OBJECT_NAME":"OTB-3-GAZELLE","OBJECT_ID":"2022-127A","EPOCH":"2026-03-03T11:57:53.373888","MEAN_MOTION":14.42632547,"ECCENTRICITY":0.00138359,"INCLINATION":98.3901,"RA_OF_ASC_NODE":55.8399,"ARG_OF_PERICENTER":143.208,"MEAN_ANOMALY":217.0062,"EPHEMERIS_TYPE":0,"CLASSIFICATION_TYPE":"U","NORAD_CAT_ID":54023,"ELEMENT_SET_NO":999,"REV_AT_EPOCH":17912,"BSTAR":4.1367886e-5,"MEAN_MOTION_DOT":9.4e-7,"MEAN_MOTION_DDOT":0},{"OBJECT_NAME":"ASO-S","OBJECT_ID":"2022-129A","EPOCH":"2026-03-03T21:23:42.346176","MEAN_MOTION":14.5200859,"ECCENTRICITY":0.0015394,"INCLINATION":98.2776,"RA_OF_ASC_NODE":69.4727,"ARG_OF_PERICENTER":59.0324,"MEAN_ANOMALY":301.2381,"EPHEMERIS_TYPE":0,"CLASSIFICATION_TYPE":"U","NORAD_CAT_ID":54029,"ELEMENT_SET_NO":999,"REV_AT_EPOCH":18014,"BSTAR":8.4243e-5,"MEAN_MOTION_DOT":2.96e-6,"MEAN_MOTION_DDOT":0},{"OBJECT_NAME":"HJ-2E","OBJECT_ID":"2022-132A","EPOCH":"2026-03-03T20:43:42.309696","MEAN_MOTION":15.20683748,"ECCENTRICITY":0.0021699,"INCLINATION":97.3822,"RA_OF_ASC_NODE":69.2487,"ARG_OF_PERICENTER":23.4156,"MEAN_ANOMALY":336.8063,"EPHEMERIS_TYPE":0,"CLASSIFICATION_TYPE":"U","NORAD_CAT_ID":54035,"ELEMENT_SET_NO":999,"REV_AT_EPOCH":18840,"BSTAR":0.00059575,"MEAN_MOTION_DOT":0.00013115,"MEAN_MOTION_DDOT":0},{"OBJECT_NAME":"COSMOS 2561","OBJECT_ID":"2022-137A","EPOCH":"2026-03-03T21:20:43.672704","MEAN_MOTION":15.48854996,"ECCENTRICITY":0.0011236,"INCLINATION":96.9334,"RA_OF_ASC_NODE":125.944,"ARG_OF_PERICENTER":60.4481,"MEAN_ANOMALY":299.7889,"EPHEMERIS_TYPE":0,"CLASSIFICATION_TYPE":"U","NORAD_CAT_ID":54109,"ELEMENT_SET_NO":999,"REV_AT_EPOCH":19003,"BSTAR":0.00034029,"MEAN_MOTION_DOT":0.00018295,"MEAN_MOTION_DDOT":0},{"OBJECT_NAME":"GONETS-M 23","OBJECT_ID":"2022-139A","EPOCH":"2026-03-03T19:29:00.192192","MEAN_MOTION":12.42886278,"ECCENTRICITY":0.0022672,"INCLINATION":82.5033,"RA_OF_ASC_NODE":53.7704,"ARG_OF_PERICENTER":91.0409,"MEAN_ANOMALY":269.3269,"EPHEMERIS_TYPE":0,"CLASSIFICATION_TYPE":"U","NORAD_CAT_ID":54150,"ELEMENT_SET_NO":999,"REV_AT_EPOCH":15255,"BSTAR":2.6341e-5,"MEAN_MOTION_DOT":1.4e-7,"MEAN_MOTION_DDOT":0},{"OBJECT_NAME":"GONETS-M 24","OBJECT_ID":"2022-139B","EPOCH":"2026-03-03T20:46:14.248416","MEAN_MOTION":12.42886733,"ECCENTRICITY":0.001784,"INCLINATION":82.4947,"RA_OF_ASC_NODE":52.8687,"ARG_OF_PERICENTER":100.5998,"MEAN_ANOMALY":259.7092,"EPHEMERIS_TYPE":0,"CLASSIFICATION_TYPE":"U","NORAD_CAT_ID":54151,"ELEMENT_SET_NO":999,"REV_AT_EPOCH":15256,"BSTAR":0.00011127,"MEAN_MOTION_DOT":2.5e-7,"MEAN_MOTION_DDOT":0},{"OBJECT_NAME":"GONETS-M 25","OBJECT_ID":"2022-139C","EPOCH":"2026-03-03T20:26:33.035136","MEAN_MOTION":12.42886156,"ECCENTRICITY":0.0021768,"INCLINATION":82.5016,"RA_OF_ASC_NODE":53.507,"ARG_OF_PERICENTER":99.3917,"MEAN_ANOMALY":260.9625,"EPHEMERIS_TYPE":0,"CLASSIFICATION_TYPE":"U","NORAD_CAT_ID":54152,"ELEMENT_SET_NO":999,"REV_AT_EPOCH":15256,"BSTAR":0.00023689,"MEAN_MOTION_DOT":4.3e-7,"MEAN_MOTION_DDOT":0}]
